[{"OBJECT_NAME":"STARLINK-34568","OBJECT_ID":"2025-142X","EPOCH":"2026-03-09T21:56:50.582976","MEAN_MOTION":14.98333705,"ECCENTRICITY":0.0002501,"INCLINATION":70.0007,"RA_OF_ASC_NODE":313.9237,"ARG_OF_PERICENTER":271.133,"MEAN_ANOMALY":88.9543,"EPHEMERIS_TYPE":0,"CLASSIFICATION_TYPE":"U","NORAD_CAT_ID":64717,"ELEMENT_SET_NO":999,"REV_AT_EPOCH":3952,"BSTAR":0.00031641368,"MEAN_MOTION_DOT":3.685e-5,"MEAN_MOTION_DDOT":0},{"OBJECT_NAME":"IKONOS 2","OBJECT_ID":"1999-051A","EPOCH":"2026-03-09T15:19:40.153152","MEAN_MOTION":14.96976552,"ECCENTRICITY":0.0006412,"INCLINATION":98.1486,"RA_OF_ASC_NODE":313.4587,"ARG_OF_PERICENTER":157.8343,"MEAN_ANOMALY":202.3156,"EPHEMERIS_TYPE":0,"CLASSIFICATION_TYPE":"U","NORAD_CAT_ID":25919,"ELEMENT_SET_NO":999,"REV_AT_EPOCH":42402,"BSTAR":0.00024901,"MEAN_MOTION_DOT":2.801e-5,"MEAN_MOTION_DDOT":0}]
